ONEWEB-0113             
1 48050U 21025J   22233.77492174  .00000340  00000+0  89572-3 0  9990
2 48050  87.8991 237.4502 0002160  90.2358 269.9019 13.13469169 70400
ONEWEB-0112             
1 48051U 21025K   22233.76371856  .00000327  00000+0  86088-3 0  9997
2 48051  87.9042 237.3617 0002040  88.5714 271.5649 13.13470788 70427
ONEWEB-0156             
1 48052U 21025L   22233.54415028  .00000381  00000+0  10084-2 0  9996
2 48052  87.8996 237.4770 0001995  90.0647 270.0711 13.13471534 70364
ONEWEB-0161             
1 48053U 21025M   22233.51725352 -.00000072  00000+0 -23257-3 0  9994
2 48053  87.9037 237.4479 0001987  83.6725 276.4630 13.13471350 70292
ONEWEB-0158             
1 48054U 21025N   22233.70996471  .00001581  00000+0  42939-2 0  9999
2 48054  87.8993 237.4535 0002443  91.1069 269.0340 13.13466655 70444
ONEWEB-0157             
1 48055U 21025P   22233.50382306 -.00000281  00000+0 -80536-3 0  9998
2 48055  87.8963 237.4355 0001679  85.7345 274.3976 13.13471540 70351
ONEWEB-0162             
1 48056U 21025Q   22233.77045363  .00000352  00000+0  92880-3 0  9999
2 48056  87.9042 237.3743 0001931  92.8024 267.3326 13.13470369 70343
ONEWEB-0155             
1 48057U 21025R   22233.71667718 -.00000025  00000+0 -10295-3 0  9997
2 48057  87.8948 237.3498 0002090  84.1112 276.0255 13.13468389 70509
ONEWEB-0149             
1 48058U 21025S   22233.50829958 -.00000255  00000+0 -73342-3 0  9998
2 48058  87.8984 237.4533 0001724 104.3962 255.7358 13.13470970 70273
ONEWEB-0148             
1 48059U 21025T   22233.77716589  .00000325  00000+0  85493-3 0  9999
2 48059  87.9014 237.3917 0001164 105.0624 255.0634 13.13469562 70438
ONEWEB-0160             
1 48060U 21025U   22233.71891110 -.00000133  00000+0 -39836-3 0  9998
2 48060  87.9021 237.4001 0003184  97.7652 262.3839 13.13470811 70375
ONEWEB-0163             
1 48061U 21025V   22233.77941430  .00000313  00000+0  82262-3 0  9995
2 48061  87.9003 237.4819 0001547  76.4683 283.6618 13.13469341 70515
ONEWEB-0159             
1 48062U 21025W   22233.76819076  .00000317  00000+0  83369-3 0  9998
2 48062  87.9051 237.4183 0001494  83.7146 276.4153 13.13471793 70427
ONEWEB-0164             
1 48063U 21025X   22233.52174476  .00000040  00000+0  73502-4 0  9993
2 48063  87.9010 237.5550 0002286  81.1059 279.0329 13.13471958 70378
ONEWEB-0167             
1 48064U 21025Y   22233.70547105  .00000198  00000+0  50710-3 0  9996
2 48064  87.8965 237.3958 0001695  84.7898 275.3424 13.13470856 70382
ONEWEB-0166             
1 48065U 21025Z   22233.49710086 -.00000235  00000+0 -67877-3 0  9999
2 48065  87.9035 237.4125 0001773  85.1507 274.9824 13.13471433 70435
ONEWEB-0151             
1 48066U 21025AA  22233.49933683 -.00000346  00000+0 -98226-3 0  9995
2 48066  87.8978 237.4611 0002343  80.4349 279.7045 13.13469259 70371
ONEWEB-0170             
1 48067U 21025AB  22233.50605784 -.00000287  00000+0 -82052-3 0  9990
2 48067  87.9008 237.5459 0003033  82.1363 278.0110 13.13470408 70339
ONEWEB-0168             
1 48068U 21025AC  22233.49261585 -.00000175  00000+0 -51470-3 0  9992
2 48068  87.8992 237.5003 0001917  85.9627 274.1721 13.13468563 70344
ONEWEB-0173             
1 48069U 21025AD  22233.71443781  .00000013  00000+0  13595-6 0  9996
2 48069  87.8992 237.4664 0001832  72.7094 287.4235 13.13469894 70610
ONEWEB-0171             
1 48070U 21025AE  22233.51950918  .00000013  00000+0  13328-5 0  9994
2 48070  87.9045 237.4359 0001687  92.1400 267.9922 13.13470583 70408
ONEWEB-0172             
1 48071U 21025AF  22233.50046056 -.00000252  00000+0 -72542-3 0  9991
2 48071  87.8968 237.5287 0002097  80.1204 280.0162 13.13471364 71296
ONEWEB-0174             
1 48072U 21025AG  22233.55984327  .00000089  00000+0  21000-3 0  9998
2 48072  87.9051 237.4588 0001504 116.3085 243.8198 13.13473543 70628
ONEWEB-0175             
1 48073U 21025AH  22233.51053664 -.00002892  00000+0 -79537-2 0  9999
2 48073  87.9005 237.4101 0002457  81.3251 278.8157 13.13486129 70271
ONEWEB-0177             
1 48074U 21025AJ  22233.52398761  .00000087  00000+0  20372-3 0  9997
2 48074  87.9000 237.5212 0001559  67.8402 292.2893 13.13467849 70466
ONEWEB-0178             
1 48075U 21025AK  22233.54079931  .00000375  00000+0  99114-3 0  9995
2 48075  87.9049 237.4493 0001771  83.0177 277.1153 13.13470367 70511
ONEWEB-0108             
1 48076U 21025AL  22233.50157848 -.00000257  00000+0 -73960-3 0  9998
2 48076  87.8973 237.4599 0002033  99.4945 260.6414 13.13471681 70438
ONEWEB-0169             
1 48077U 21025AM  22233.53293774  .00000334  00000+0  87935-3 0  9992
2 48077  87.9003 237.5360 0001857  99.8647 260.2692 13.13470050 69090
ONEWEB-0176             
1 48210U 21031A   22233.48249423 -.00000102  00000+0 -30877-3 0  9992
2 48210  87.9061 207.1752 0001927  79.2573 280.8774 13.14500307 64958
ONEWEB-0184             
1 48211U 21031B   22233.45713226  .00000271  00000+0  69659-3 0  9992
2 48211  87.9036 207.0913 0003182  67.8019 292.3448 13.14503075 64920
ONEWEB-0179             
1 48212U 21031C   22233.42539842 -.00000455  00000+0 -12620-2 0  9991
2 48212  87.9040 207.0984 0001805  75.9289 284.2041 13.14501228 64964
ONEWEB-0180             
1 48213U 21031D   22233.45923137  .00000275  00000+0  70851-3 0  9998
2 48213  87.9033 207.0860 0001838  81.4937 278.6401 13.14505182 64856
ONEWEB-0218             
1 48214U 21031E   22233.48038982 -.00000080  00000+0 -25149-3 0  9993
2 48214  87.9025 207.0417 0002913  56.6407 303.5001 13.14504106 65015
ONEWEB-0209             
1 48215U 21031F   22233.46981967  .00000176  00000+0  44113-3 0  9998
2 48215  87.9052 207.1212 0001954  79.2617 280.8732 13.14504806 65013
ONEWEB-0198             
1 48216U 21031G   22233.75948246  .00000199  00000+0  50244-3 0  9991
2 48216  87.9040 207.0785 0002123  62.8319 297.3027 13.14503971 65147
ONEWEB-0189             
1 48217U 21031H   22233.46770867  .00000170  00000+0  42315-3 0  9991
2 48217  87.9034 207.0697 0002105  63.7608 296.3738 13.14504361 64864
ONEWEB-0196             
1 48218U 21031J   22233.44656534  .00000180  00000+0  45001-3 0  9990
2 48218  87.9052 207.1089 0002138  79.3795 280.7575 13.14503227 64863
ONEWEB-0183             
1 48219U 21031K   22233.49519378 -.00000243  00000+0 -68903-3 0  9998
2 48219  87.9057 207.1178 0001762  88.6527 271.4805 13.14504542 64961
ONEWEB-0185             
1 48220U 21031L   22233.44762097  .00000227  00000+0  57894-3 0  9990
2 48220  87.9043 207.1074 0001850  82.7656 277.3684 13.14501607 64889
ONEWEB-0187             
1 48221U 21031M   22233.42330776 -.00000184  00000+0 -53157-3 0  9996
2 48221  87.9053 207.1338 0001825  81.1612 278.9724 13.14500838 64899
ONEWEB-0192             
1 48222U 21031N   22233.62415846  .00000107  00000+0  25401-3 0  9995
2 48222  87.9038 207.0435 0002202  78.1046 282.0331 13.14504450 64846
ONEWEB-0219             
1 48223U 21031P   22233.45290704  .00000280  00000+0  72088-3 0  9996
2 48223  87.9033 207.0634 0001892  79.9608 280.1735 13.14500904 65017
ONEWEB-0202             
1 48224U 21031Q   22233.43175591 -.00000065  00000+0 -20988-3 0  9996
2 48224  87.9055 207.1357 0002584  53.1610 306.9756 13.14503524 64998
ONEWEB-0204             
1 48225U 21031R   22233.64424777 -.00000209  00000+0 -59922-3 0  9993
2 48225  87.9074 207.1177 0002290 102.0014 258.1373 13.14504842 64926
ONEWEB-0205             
1 48226U 21031S   22233.44233726  .00000176  00000+0  44131-3 0  9991
2 48226  87.9052 207.1122 0001963  71.1193 289.0149 13.14501272 64909
ONEWEB-0206             
1 48227U 21031T   22233.49094863 -.00000210  00000+0 -60107-3 0  9996
2 48227  87.9026 207.0429 0001749  83.2504 276.8824 13.14500453 64861
ONEWEB-0182             
1 48228U 21031U   22233.48462056 -.00000067  00000+0 -21587-3 0  9998
2 48228  87.9071 207.1613 0001735  79.8783 280.2543 13.14504890 65073
ONEWEB-0186             
1 48229U 21031V   22233.49729660 -.00000151  00000+0 -44120-3 0  9999
2 48229  87.9040 207.0748 0001960  75.8141 284.3207 13.14504740 65023
ONEWEB-0181             
1 48230U 21031W   22233.62628217  .00000120  00000+0  28902-3 0  9996
2 48230  87.9058 207.1146 0002070  79.6564 280.4799 13.14500606 64907
ONEWEB-0188             
1 48231U 21031X   22233.66645104 -.00000109  00000+0 -32942-3 0  9993
2 48231  87.9058 207.1082 0001873  80.6403 279.4938 13.14504195 64800
ONEWEB-0220             
1 48232U 21031Y   22233.47614924 -.00000220  00000+0 -62696-3 0  9992
2 48232  87.9035 207.0564 0001741  70.6675 289.4643 13.14501512 65045
ONEWEB-0165             
1 48233U 21031Z   22233.42963984 -.00000089  00000+0 -27341-3 0  9992
2 48233  87.9053 207.1378 0001881  74.7177 285.4160 13.14504850 64998
ONEWEB-0199             
1 48234U 21031AA  22233.48884879 -.00000171  00000+0 -49697-3 0  9994
2 48234  87.9044 207.1041 0001956  78.1215 282.0134 13.14504833 64906
ONEWEB-0203             
1 48235U 21031AB  22233.63051839  .00000006  00000+0 -17729-4 0  9992
2 48235  87.9064 207.0682 0002554  79.7662 280.3756 13.14502919 64934
ONEWEB-0197             
1 48236U 21031AC  22233.46560533  .00000330  00000+0  85485-3 0  9992
2 48236  87.9050 207.1125 0002045  78.0459 282.0900 13.14503816 64829
ONEWEB-0194             
1 48237U 21031AD  22233.43387942 -.00000010  00000+0 -61110-4 0  9998
2 48237  87.9041 207.1097 0002528  85.7127 274.4292 13.14501218 64992
ONEWEB-0193             
1 48238U 21031AE  22233.45079411  .00000211  00000+0  53458-3 0  9996
2 48238  87.9051 207.1164 0002215  77.5068 282.6310 13.14501334 64941
ONEWEB-0191             
1 48239U 21031AF  22233.46136128 -.00000268  00000+0 -75640-3 0  9998
2 48239  87.9036 207.0985 0001752  67.7830 292.3486 13.14504924 64803
ONEWEB-0195             
1 48240U 21031AG  22233.43916491  .00000093  00000+0  21520-3 0  9998
2 48240  87.9040 207.0938 0002106  66.2331 293.9019 13.14500878 64782
